NORAD_CAT_ID,OBJECT_NAME,OBJECT_TYPE,EPOCH,MEAN_MOTION,ECCENTRICITY,INCLINATION,RA_OF_ASC_NODE,ARG_OF_PERICENTER,MEAN_ANOMALY,BSTAR,MEAN_MOTION_DOT,MEAN_MOTION_DDOT,TLE_LINE0,TLE_LINE1,TLE_LINE2,SEMIMAJOR_AXIS,PERIOD,APOGEE,PERIGEE,DECAYED
55944.0,STARLINK-5926,PAYLOAD,2023-09-28 12:13:19,14.98322535,0.000296,70.0026,16.3481,273.5653,86.5168,0.00010542,1.165e-05,0.0,0 STARLINK-5926,1 55944U 23037AG  23271.50924944  .00001165  00000-0  10542-3 0  9992,2 55944  70.0026  16.3481 0002960 273.5653  86.5168 14.98322535 30532,6950.216,96.107,574.138,570.024,0.0
55944.0,STARLINK-5926,PAYLOAD,2023-09-28 13:49:27,14.98323464,0.0002626,70.0027,16.1798,264.3192,95.7668,8.6688e-05,9.41e-06,0.0,0 STARLINK-5926,1 55944U 23037AG  23271.57600936  .00000941  00000-0  86688-4 0  9997,2 55944  70.0027  16.1798 0002626 264.3192  95.7668 14.98323464 30200,6950.213,96.107,573.903,570.253,0.0
55944.0,STARLINK-5926,PAYLOAD,2023-09-28 17:01:42,14.98326698,0.0002716,70.0028,15.8433,267.6263,92.4585,0.000129,1.446e-05,0.0,0 STARLINK-5926,1 55944U 23037AG  23271.70952537  .00001446  00000-0  12900-3 0  9995,2 55944  70.0028  15.8433 0002716 267.6263  92.4585 14.98326698 30224,6950.203,96.107,573.956,570.18,0.0
55944.0,STARLINK-5926,PAYLOAD,2023-09-29 12:15:19,14.98331414,0.0002838,70.003,13.8251,262.9816,97.102,-1.4237e-05,-2.63e-06,0.0,0 STARLINK-5926,1 55944U 23037AG  23272.51064744 -.00000263  00000-0 -14237-4 0  9993,2 55944  70.0030  13.8251 0002838 262.9816  97.1020 14.98331414 30688,6950.189,96.107,574.026,570.081,0.0
55944.0,STARLINK-5926,PAYLOAD,2023-09-29 13:51:27,14.9833103,0.0002891,70.003,13.6559,266.1478,93.9351,1.6794e-05,1.07e-06,0.0,0 STARLINK-5926,1 55944U 23037AG  23272.57740612  .00000107  00000-0  16794-4 0  9999,2 55944  70.0030  13.6559 0002891 266.1478  93.9351 14.98331030 30355,6950.19,96.107,574.064,570.045,0.0
55944.0,STARLINK-5926,PAYLOAD,2023-09-29 17:03:44,14.98317594,0.0002724,70.0032,13.3201,265.9276,94.1571,0.0003112,3.621e-05,0.0,0 STARLINK-5926,1 55944U 23037AG  23272.71092774  .00003621  00000-0  31120-3 0  9997,2 55944  70.0032  13.3201 0002724 265.9276  94.1571 14.98317594 30374,6950.231,96.108,573.989,570.203,0.0
55944.0,STARLINK-5926,PAYLOAD,2023-09-30 17:05:43,14.98365204,0.000271,70.0032,10.7955,267.1504,92.9345,-0.00045619,-5.537e-05,0.0,0 STARLINK-5926,1 55944U 23037AG  23273.71231079 -.00005537  00000-0 -45619-3 0  9999,2 55944  70.0032  10.7955 0002710 267.1504  92.9345 14.98365204 30864,6950.084,96.105,573.833,570.066,0.0
55944.0,STARLINK-5926,PAYLOAD,2023-09-30 23:30:16,14.98338723,0.0002586,70.0038,10.1192,282.4523,77.6347,-5.025e-06,-1.53e-06,0.0,0 STARLINK-5926,1 55944U 23037AG  23273.97935904 -.00000153  00000-0 -50250-5 0  9993,2 55944  70.0038  10.1192 0002586 282.4523  77.6347 14.98338723 30902,6950.166,96.106,573.828,570.234,0.0
55944.0,STARLINK-5926,PAYLOAD,2023-10-01 12:19:20,14.98337745,0.0002856,70.0022,8.7752,261.9551,98.1284,3.6165e-05,3.39e-06,0.0,0 STARLINK-5926,1 55944U 23037AG  23274.51343439  .00000339  00000-0  36165-4 0  9992,2 55944  70.0022   8.7752 0002856 261.9551  98.1284 14.98337745 30645,6950.169,96.107,574.019,570.049,0.0
55944.0,STARLINK-5926,PAYLOAD,2023-10-01 17:07:44,14.98339938,0.0002801,70.0023,8.2696,263.7227,96.3613,8.7391e-05,9.5e-06,0.0,0 STARLINK-5926,1 55944U 23037AG  23274.71371073  .00000950  00000-0  87391-4 0  9995,2 55944  70.0023   8.2696 0002801 263.7227  96.3613 14.98339938 30673,6950.162,96.106,573.974,570.08,0.0
55944.0,STARLINK-5926,PAYLOAD,2023-10-01 23:32:18,14.98326884,0.0002004,70.0027,7.5938,279.3096,80.7837,-5.8956e-05,-7.96e-06,0.0,0 STARLINK-5926,1 55944U 23037AG  23274.98076523 -.00000796  00000-0 -58956-4 0  9991,2 55944  70.0027   7.5938 0002004 279.3096  80.7837 14.98326884 31054,6950.203,96.107,573.46,570.675,0.0
55944.0,STARLINK-5926,PAYLOAD,2023-10-02 15:33:39,14.98323533,0.0002785,70.0023,5.9147,270.4395,89.6445,-0.0001523,-1.909e-05,0.0,0 STARLINK-5926,1 55944U 23037AG  23275.64836896 -.00001909  00000-0 -15230-3 0  9996,2 55944  70.0023   5.9147 0002785 270.4395  89.6445 14.98323533 30818,6950.213,96.107,574.014,570.142,0.0
55944.0,STARLINK-5926,PAYLOAD,2023-10-03 12:23:22,14.98336554,0.0002969,70.0017,3.7265,272.9943,87.0876,4.565e-06,-3.9e-07,0.0,0 STARLINK-5926,1 55944U 23037AG  23276.51623655 -.00000039  00000-0  45650-5 0  9993,2 55944  70.0017   3.7265 0002969 272.9943  87.0876 14.98336554 31287,6950.173,96.107,574.101,569.974,0.0
55944.0,STARLINK-5926,PAYLOAD,2023-10-03 13:59:30,14.98336003,0.000291,70.0017,3.558,273.0606,87.022,-9.5841e-06,-2.07e-06,0.0,0 STARLINK-5926,1 55944U 23037AG  23276.58299715 -.00000207  00000-0 -95841-5 0  9991,2 55944  70.0017   3.5580 0002910 273.0606  87.0220 14.98336003 30954,6950.174,96.107,574.062,570.017,0.0
55944.0,STARLINK-5926,PAYLOAD,2023-10-03 15:35:38,14.98336864,0.0002912,70.0018,3.3896,273.1813,86.9013,-4.1963e-07,-9.8e-07,0.0,0 STARLINK-5926,1 55944U 23037AG  23276.64975618 -.00000098  00000-0 -41963-6 0  9996,2 55944  70.0018   3.3896 0002912 273.1813  86.9013 14.98336864 30960,6950.172,96.107,574.061,570.013,0.0
55944.0,STARLINK-5926,PAYLOAD,2023-10-04 10:49:16,14.98324445,0.0002944,70.0017,1.3692,274.4293,85.653,0.00015326,1.736e-05,0.0,0 STARLINK-5926,1 55944U 23037AG  23277.45087968  .00001736  00000-0  15326-3 0  9997,2 55944  70.0017   1.3692 0002944 274.4293  85.6530 14.98324445 31426,6950.21,96.107,574.121,570.029,0.0
55944.0,STARLINK-5926,PAYLOAD,2023-10-04 14:01:31,14.98332795,0.0002961,70.0014,1.0309,272.4752,87.6068,0.00018841,2.156e-05,0.0,0 STARLINK-5926,1 55944U 23037AG  23277.58439318  .00002156  00000-0  18841-3 0  9993,2 55944  70.0014   1.0309 0002961 272.4752  87.6068 14.98332795 31102,6950.184,96.107,574.107,569.991,0.0
55944.0,STARLINK-5926,PAYLOAD,2023-10-04 15:37:39,14.98333449,0.0002853,70.0016,0.8627,270.0561,90.0271,0.00022209,2.558e-05,0.0,0 STARLINK-5926,1 55944U 23037AG  23277.65115174  .00002558  00000-0  22209-3 0  9991,2 55944  70.0016   0.8627 0002853 270.0561  90.0271 14.98333449 31455,6950.182,96.107,574.03,570.064,0.0
55944.0,STARLINK-5926,PAYLOAD,2023-10-05 10:51:17,14.98324894,0.0002741,70.0029,358.844,261.2295,98.8553,1.0983e-05,3.8e-07,0.0,0 STARLINK-5926,1 55944U 23037AG  23278.45228179  .00000038  00000-0  10983-4 0  9998,2 55944  70.0029 358.8440 0002741 261.2295  98.8553 14.98324894 31576,6950.209,96.107,573.979,570.169,0.0
55944.0,STARLINK-5926,PAYLOAD,2023-10-05 14:03:32,14.98334726,0.0003012,70.0019,358.5074,268.4977,91.5837,-3.7444e-05,-5.4e-06,0.0,0 STARLINK-5926,1 55944U 23037AG  23278.58579681 -.00000540  00000-0 -37444-4 0  9990,2 55944  70.0019 358.5074 0003012 268.4977  91.5837 14.98334726 31258,6950.178,96.107,574.137,569.95,0.0
55944.0,STARLINK-5926,PAYLOAD,2023-10-05 15:39:40,14.98336527,0.0002967,70.0017,358.3385,269.688,90.3939,-9.8934e-06,-2.11e-06,0.0,0 STARLINK-5926,1 55944U 23037AG  23278.65255483 -.00000211  00000-0 -98934-5 0  9996,2 55944  70.0017 358.3385 0002967 269.6880  90.3939 14.98336527 31603,6950.173,96.107,574.1,569.976,0.0
55944.0,STARLINK-5926,PAYLOAD,2023-10-06 10:53:18,14.98327469,0.0002742,70.0021,356.3201,262.7411,97.3436,-7.0159e-05,-9.3e-06,0.0,0 STARLINK-5926,1 55944U 23037AG  23279.45368178 -.00000930  00000-0 -70159-4 0  9997,2 55944  70.0021 356.3201 0002742 262.7411  97.3436 14.98327469 31725,6950.201,96.107,573.971,570.16,0.0
55944.0,STARLINK-5926,PAYLOAD,2023-10-06 14:05:34,14.98330448,0.000272,70.0022,355.9832,264.749,95.3359,-1.0894e-05,-2.23e-06,0.0,0 STARLINK-5926,1 55944U 23037AG  23279.58719924 -.00000223  00000-0 -10894-4 0  9995,2 55944  70.0022 355.9832 0002720 264.7490  95.3359 14.98330448 31404,6950.192,96.107,573.947,570.166,0.0
55944.0,STARLINK-5926,PAYLOAD,2023-10-06 15:41:41,14.98332239,0.0002735,70.0022,355.8152,263.7592,96.3256,-1.6161e-05,-2.86e-06,0.0,0 STARLINK-5926,1 55944U 23037AG  23279.65395710 -.00000286  00000-0 -16161-4 0  9998,2 55944  70.0022 355.8152 0002735 263.7592  96.3256 14.98332239 31414,6950.186,96.107,573.952,570.15,0.0
55944.0,STARLINK-5926,PAYLOAD,2023-10-06 22:06:14,14.98342728,0.0002693,70.0024,355.1414,264.4592,95.626,-0.00027273,-3.347e-05,0.0,0 STARLINK-5926,1 55944U 23037AG  23279.92099618 -.00003347  00000-0 -27273-3 0  9992,2 55944  70.0024 355.1414 0002693 264.4592  95.6260 14.98342728 31793,6950.154,96.106,573.89,570.147,0.0
55944.0,STARLINK-5926,PAYLOAD,2023-10-07 10:55:18,14.9832789,0.0002705,70.0018,353.7943,261.4971,98.5882,5.4145e-05,5.53e-06,0.0,0 STARLINK-5926,1 55944U 23037AG  23280.45507780  .00000553  00000-0  54145-4 0  9999,2 55944  70.0018 353.7943 0002705 261.4971  98.5882 14.98327890 31873,6950.199,96.107,573.944,570.184,0.0
55944.0,STARLINK-5926,PAYLOAD,2023-10-07 14:07:34,14.98328276,0.0002696,70.0018,353.4577,260.9301,99.1553,6.0241e-05,6.26e-06,0.0,0 STARLINK-5926,1 55944U 23037AG  23280.58859755  .00000626  00000-0  60241-4 0  9990,2 55944  70.0018 353.4577 0002696 260.9301  99.1553 14.98328276 31559,6950.198,96.107,573.937,570.189,0.0
55944.0,STARLINK-5926,PAYLOAD,2023-10-08 10:57:19,14.98327268,0.0002779,70.0012,351.2686,268.6652,91.4189,1.4735e-05,8.3e-07,0.0,0 STARLINK-5926,1 55944U 23037AG  23281.45648064  .00000083  00000-0  14735-4 0  9990,2 55944  70.0012 351.2686 0002779 268.6652  91.4189 14.98327268 32029,6950.201,96.107,573.998,570.135,0.0
55944.0,STARLINK-5926,PAYLOAD,2023-10-08 12:33:27,14.98327994,0.000276,70.0012,351.1003,268.5097,91.5746,2.411e-05,1.95e-06,0.0,0 STARLINK-5926,1 55944U 23037AG  23281.52324002  .00000195  00000-0  24110-4 0  9993,2 55944  70.0012 351.1003 0002760 268.5097  91.5746 14.98327994 31691,6950.199,96.107,573.982,570.146,0.0
55944.0,STARLINK-5926,PAYLOAD,2023-10-08 14:09:35,14.98330206,0.0002821,70.0012,350.9321,269.9185,90.1651,4.857e-05,4.87e-06,0.0,0 STARLINK-5926,1 55944U 23037AG  23281.58999795  .00000487  00000-0  48570-4 0  9996,2 55944  70.0012 350.9321 0002821 269.9185  90.1651 14.98330206 31704,6950.192,96.107,574.018,570.097,0.0
